{
  "norad_id": 57778,
  "name": "STARLINK-30385",
  "history": [
    {
      "epoch": "2026-03-28T16:05:32.343072Z",
      "apogee_km": 483.90575464691756,
      "perigee_km": 482.1912816096474,
      "latitude_deg": -2.6865653036521076e-05,
      "longitude_deg": 8.330384717428823,
      "height_km": 482.9222547065361,
      "semi_major_axis_km": 6861.185518128282,
      "eccentricity": 0.00012494,
      "inclination_deg": 43.0018,
      "raan_deg": 75.8028,
      "arg_perigee_deg": 263.5043,
      "mean_anomaly_deg": 96.5666,
      "mean_motion_rev_day": 15.27580193
    },
    {
      "epoch": "2026-03-28T23:56:19.222944Z",
      "apogee_km": 483.9111677728888,
      "perigee_km": 482.1821494909136,
      "latitude_deg": -5.780936450340073e-05,
      "longitude_deg": -111.5352195792568,
      "height_km": 482.90169067570514,
      "semi_major_axis_km": 6861.1836586319005,
      "eccentricity": 0.000126,
      "inclination_deg": 43.0015,
      "raan_deg": 73.9548,
      "arg_perigee_deg": 264.8042,
      "mean_anomaly_deg": 95.2665,
      "mean_motion_rev_day": 15.27580814
    },
    {
      "epoch": "2026-03-30T05:45:17.737632Z",
      "apogee_km": 483.63179861003846,
      "perigee_km": 482.4756879697943,
      "latitude_deg": 4.803757977883752e-06,
      "longitude_deg": 152.98032673052575,
      "height_km": 483.0100787108701,
      "semi_major_axis_km": 6861.190743289916,
      "eccentricity": 8.425e-05,
      "inclination_deg": 43.0033,
      "raan_deg": 66.9386,
      "arg_perigee_deg": 251.8766,
      "mean_anomaly_deg": 108.1994,
      "mean_motion_rev_day": 15.27578448
    },
    {
      "epoch": "2026-03-30T07:19:27.350688Z",
      "apogee_km": 484.0017503996014,
      "perigee_km": 482.1437348013051,
      "latitude_deg": -3.984978879245538e-05,
      "longitude_deg": 129.00697440949176,
      "height_km": 483.03391313426226,
      "semi_major_axis_km": 6861.209742600453,
      "eccentricity": 0.0001354,
      "inclination_deg": 43.0014,
      "raan_deg": 66.5698,
      "arg_perigee_deg": 258.5516,
      "mean_anomaly_deg": 101.5183,
      "mean_motion_rev_day": 15.27572103
    },
    {
      "epoch": "2026-03-30T23:00:59.702112Z",
      "apogee_km": 484.1914017789268,
      "perigee_km": 481.79192786226577,
      "latitude_deg": 2.732916914053196e-05,
      "longitude_deg": -110.71521147438168,
      "height_km": 482.83445910889276,
      "semi_major_axis_km": 6861.128664820596,
      "eccentricity": 0.00017486,
      "inclination_deg": 43.004,
      "raan_deg": 62.8768,
      "arg_perigee_deg": 266.876,
      "mean_anomaly_deg": 93.1892,
      "mean_motion_rev_day": 15.2759918
    },
    {
      "epoch": "2026-03-31T14:42:35.057664Z",
      "apogee_km": 483.9029490764942,
      "perigee_km": 482.34407068864857,
      "latitude_deg": -5.444410093371459e-05,
      "longitude_deg": 9.549492487001285,
      "height_km": 482.957259388617,
      "semi_major_axis_km": 6861.260509882572,
      "eccentricity": 0.0001136,
      "inclination_deg": 43.0014,
      "raan_deg": 59.1834,
      "arg_perigee_deg": 265.7976,
      "mean_anomaly_deg": 94.2745,
      "mean_motion_rev_day": 15.27555149
    },
    {
      "epoch": "2026-04-01T14:14:55.641120Z",
      "apogee_km": 484.053960862384,
      "perigee_km": 482.0943989494017,
      "latitude_deg": -1.903039577561119e-05,
      "longitude_deg": 9.957952654699941,
      "height_km": 482.78965296278596,
      "semi_major_axis_km": 6861.211179905892,
      "eccentricity": 0.0001428,
      "inclination_deg": 43.0008,
      "raan_deg": 53.6443,
      "arg_perigee_deg": 273.59,
      "mean_anomaly_deg": 86.4788,
      "mean_motion_rev_day": 15.27571623
    },
    {
      "epoch": "2026-04-02T13:47:16.819008Z",
      "apogee_km": 483.82190492866175,
      "perigee_km": 482.1855228683962,
      "latitude_deg": -4.813518130606185e-06,
      "longitude_deg": 10.365106264864766,
      "height_km": 482.804981877215,
      "semi_major_axis_km": 6861.140713898529,
      "eccentricity": 0.00011925,
      "inclination_deg": 43.0034,
      "raan_deg": 48.1064,
      "arg_perigee_deg": 268.2934,
      "mean_anomaly_deg": 91.7781,
      "mean_motion_rev_day": 15.27595156
    },
    {
      "epoch": "2026-04-03T13:19:36.851232Z",
      "apogee_km": 483.75709145214387,
      "perigee_km": 482.2009903340695,
      "latitude_deg": -4.851439207135732e-05,
      "longitude_deg": 10.775984135651436,
      "height_km": 482.94667031702755,
      "semi_major_axis_km": 6861.116040893106,
      "eccentricity": 0.0001134,
      "inclination_deg": 43.0024,
      "raan_deg": 42.5675,
      "arg_perigee_deg": 255.7941,
      "mean_anomaly_deg": 104.2784,
      "mean_motion_rev_day": 15.27603396
    },
    {
      "epoch": "2026-04-04T20:42:45.379872Z",
      "apogee_km": 483.32427470917264,
      "perigee_km": 482.8055678439232,
      "latitude_deg": -2.766736866884145e-05,
      "longitude_deg": -108.6799954912492,
      "height_km": 482.779229271274,
      "semi_major_axis_km": 6861.201921276547,
      "eccentricity": 3.78e-05,
      "inclination_deg": 42.9953,
      "raan_deg": 35.186,
      "arg_perigee_deg": 283.5931,
      "mean_anomaly_deg": 76.4878,
      "mean_motion_rev_day": 15.27574715
    },
    {
      "epoch": "2026-04-05T06:07:40.694304Z",
      "apogee_km": 484.1033255090342,
      "perigee_km": 481.8309278222823,
      "latitude_deg": -5.201622527535354e-05,
      "longitude_deg": 107.48412585753833,
      "height_km": 482.85260379078517,
      "semi_major_axis_km": 6861.1041266656575,
      "eccentricity": 0.0001656,
      "inclination_deg": 43.0019,
      "raan_deg": 32.9673,
      "arg_perigee_deg": 264.5266,
      "mean_anomaly_deg": 95.5396,
      "mean_motion_rev_day": 15.27607375
    },
    {
      "epoch": "2026-04-05T20:15:06.072192Z",
      "apogee_km": 484.2337756283332,
      "perigee_km": 481.8858740748701,
      "latitude_deg": 1.0970517388302935e-05,
      "longitude_deg": -108.275289637694,
      "height_km": 482.8987402530379,
      "semi_major_axis_km": 6861.196824851601,
      "eccentricity": 0.0001711,
      "inclination_deg": 43.0018,
      "raan_deg": 29.6436,
      "arg_perigee_deg": 266.9837,
      "mean_anomaly_deg": 93.0819,
      "mean_motion_rev_day": 15.27576417
    },
    {
      "epoch": "2026-04-06T04:05:53.340864Z",
      "apogee_km": 483.95567547734663,
      "perigee_km": 482.1896001165769,
      "latitude_deg": -2.5227023535861954e-05,
      "longitude_deg": 131.8557754540995,
      "height_km": 482.894093348661,
      "semi_major_axis_km": 6861.209637796961,
      "eccentricity": 0.0001287,
      "inclination_deg": 43.0037,
      "raan_deg": 27.7939,
      "arg_perigee_deg": 267.1153,
      "mean_anomaly_deg": 92.9551,
      "mean_motion_rev_day": 15.27572138
    },
    {
      "epoch": "2026-04-07T03:38:12.763968Z",
      "apogee_km": 483.70641060270464,
      "perigee_km": 482.2976815337661,
      "latitude_deg": 2.2167641460011793e-06,
      "longitude_deg": 132.27407138091584,
      "height_km": 482.77025963610106,
      "semi_major_axis_km": 6861.139046068235,
      "eccentricity": 0.00010266,
      "inclination_deg": 43.0,
      "raan_deg": 22.2598,
      "arg_perigee_deg": 270.6645,
      "mean_anomaly_deg": 89.4089,
      "mean_motion_rev_day": 15.27595713
    },
    {
      "epoch": "2026-04-08T11:01:21.775584Z",
      "apogee_km": 484.04066112377313,
      "perigee_km": 482.09345141260474,
      "latitude_deg": 6.484763366616118e-05,
      "longitude_deg": 12.81341536410902,
      "height_km": 483.0312624446364,
      "semi_major_axis_km": 6861.204056268189,
      "eccentricity": 0.0001419,
      "inclination_deg": 42.9988,
      "raan_deg": 14.8756,
      "arg_perigee_deg": 258.8858,
      "mean_anomaly_deg": 101.1835,
      "mean_motion_rev_day": 15.27574002
    },
    {
      "epoch": "2026-04-09T10:33:43.267104Z",
      "apogee_km": 483.8694006456335,
      "perigee_km": 482.25605814126357,
      "latitude_deg": -2.36848823450592e-05,
      "longitude_deg": 13.217545165960662,
      "height_km": 482.9051635743486,
      "semi_major_axis_km": 6861.199729393448,
      "eccentricity": 0.00011757,
      "inclination_deg": 43.0009,
      "raan_deg": 9.3361,
      "arg_perigee_deg": 265.319,
      "mean_anomaly_deg": 94.7527,
      "mean_motion_rev_day": 15.27575447
    },
    {
      "epoch": "2026-04-10T03:49:26.274432Z",
      "apogee_km": 483.9691421632342,
      "perigee_km": 482.12897206271646,
      "latitude_deg": 2.4577820502633778e-05,
      "longitude_deg": 109.51837447529816,
      "height_km": 482.9621632245029,
      "semi_major_axis_km": 6861.1860571129755,
      "eccentricity": 0.0001341,
      "inclination_deg": 42.999,
      "raan_deg": 5.275,
      "arg_perigee_deg": 261.4621,
      "mean_anomaly_deg": 98.6079,
      "mean_motion_rev_day": 15.27580013
    },
    {
      "epoch": "2026-04-11T09:38:24.784800Z",
      "apogee_km": 483.94493026070904,
      "perigee_km": 482.1788576654026,
      "latitude_deg": 5.447076830318122e-05,
      "longitude_deg": 14.033500526115665,
      "height_km": 482.8658854496096,
      "semi_major_axis_km": 6861.1988939630555,
      "eccentricity": 0.0001287,
      "inclination_deg": 43.001,
      "raan_deg": 358.2584,
      "arg_perigee_deg": 268.2295,
      "mean_anomaly_deg": 91.841,
      "mean_motion_rev_day": 15.27575726
    },
    {
      "epoch": "2026-04-13T00:52:19.321536Z",
      "apogee_km": 483.98137357464293,
      "perigee_km": 482.13392830293014,
      "latitude_deg": -2.614990346162693e-05,
      "longitude_deg": 134.7101833105261,
      "height_km": 482.81342901737014,
      "semi_major_axis_km": 6861.194650938786,
      "eccentricity": 0.00013463,
      "inclination_deg": 43.0016,
      "raan_deg": 349.0236,
      "arg_perigee_deg": 271.3066,
      "mean_anomaly_deg": 88.7631,
      "mean_motion_rev_day": 15.27577143
    }
  ]
}